[
  {
    "name": "ONEWEB-0403",
    "noradId": "50483",
    "line1": "1 50483U 21132Q   26192.85409064  .00000034  00000+0  52331-4 0  9999",
    "line2": "2 50483  87.9192 330.5504 0001790  92.5515 267.5822 13.18686702224846"
  },
  {
    "name": "ONEWEB-0404",
    "noradId": "50484",
    "line1": "1 50484U 21132R   26192.51757985  .00000126  00000+0  31880-3 0  9998",
    "line2": "2 50484  87.8884  16.2225 0001896  80.3168 279.8174 13.11414210218887"
  },
  {
    "name": "ONEWEB-0405",
    "noradId": "50485",
    "line1": "1 50485U 21132S   26192.86757222  .00000015  00000+0  43789-5 0  9991",
    "line2": "2 50485  87.9197 330.5327 0002369  97.2358 262.9044 13.18684568225244"
  },
  {
    "name": "ONEWEB-0406",
    "noradId": "50486",
    "line1": "1 50486U 21132T   26192.85914405  .00000108  00000+0  24228-3 0  9997",
    "line2": "2 50486  87.9190 330.5494 0001878  80.6505 279.4839 13.18687335224875"
  },
  {
    "name": "ONEWEB-0407",
    "noradId": "50487",
    "line1": "1 50487U 21132U   26192.85239081  .00000013  00000+0 -65689-6 0  9993",
    "line2": "2 50487  87.9196 330.5440 0001945 103.3398 256.7951 13.18688210224811"
  },
  {
    "name": "ONEWEB-0409",
    "noradId": "50488",
    "line1": "1 50488U 21132V   26192.51589023  .00000140  00000+0  35998-3 0  9998",
    "line2": "2 50488  87.8868  16.2115 0001933  83.9443 276.1905 13.11414239218779"
  },
  {
    "name": "ONEWEB-0412",
    "noradId": "50489",
    "line1": "1 50489U 21132W   26192.84059770 -.00000026  00000+0 -98941-4 0  9999",
    "line2": "2 50489  87.9188 330.5541 0001617 103.6691 256.4621 13.18686583224903"
  },
  {
    "name": "ONEWEB-0413",
    "noradId": "50490",
    "line1": "1 50490U 21132X   26192.84565559 -.00000047  00000+0 -15101-3 0  9997",
    "line2": "2 50490  87.9184 330.5495 0001745 108.5875 251.5447 13.18688049224843"
  },
  {
    "name": "ONEWEB-0414",
    "noradId": "50491",
    "line1": "1 50491U 21132Y   26192.83048105 -.00000042  00000+0 -13877-3 0  9993",
    "line2": "2 50491  87.9193 330.5371 0001731  97.1295 263.0034 13.18686338224873"
  },
  {
    "name": "ONEWEB-0417",
    "noradId": "50492",
    "line1": "1 50492U 21132Z   26192.83890844 -.00000025  00000+0 -95286-4 0  9995",
    "line2": "2 50492  87.9188 330.5528 0001888  91.6360 268.4988 13.18686747224856"
  },
  {
    "name": "ONEWEB-0418",
    "noradId": "50493",
    "line1": "1 50493U 21132AA  26192.84888697 -.00000022  00000+0 -89254-4 0  9995",
    "line2": "2 50493  87.9186 330.5523 0001908  89.2680 270.8670 13.18686162224914"
  },
  {
    "name": "ONEWEB-0419",
    "noradId": "50494",
    "line1": "1 50494U 21132AB  26192.86786259  .00000016  00000+0  89624-5 0  9992",
    "line2": "2 50494  87.9192 330.5488 0002093  93.1803 266.9569 13.18666231224838"
  },
  {
    "name": "ONEWEB-0420",
    "noradId": "50495",
    "line1": "1 50495U 21132AC  26192.75627637 -.00000038  00000+0 -12818-3 0  9990",
    "line2": "2 50495  87.9184 330.5716 0001967 103.3986 256.7366 13.18686918224813"
  },
  {
    "name": "ONEWEB-0421",
    "noradId": "50496",
    "line1": "1 50496U 21132AD  26192.82543155  .00000099  00000+0  21954-3 0  9997",
    "line2": "2 50496  87.9182 330.5558 0001375  99.0960 261.0328 13.18686060224862"
  },
  {
    "name": "ONEWEB-0424",
    "noradId": "50497",
    "line1": "1 50497U 21132AE  26192.86252104  .00000020  00000+0  18608-4 0  9990",
    "line2": "2 50497  87.9192 330.5480 0002179  94.1346 266.0035 13.18686848224892"
  },
  {
    "name": "ONEWEB-0426",
    "noradId": "50498",
    "line1": "1 50498U 21132AF  26192.82121057  .00000012  00000+0 -13176-5 0  9997",
    "line2": "2 50498  87.9193 330.5475 0001470  77.7416 282.3880 13.18685622224838"
  }
]